{
  "type": "FeatureCollection",
  "features": [
    {
      "type": "Feature",
      "properties": {
        "norad_id": 31773,
        "name": "FENGYUN 1C DEB",
        "group": "fengyun-1c-debris",
        "lat": 79.01238269722916,
        "lon": -68.15856793190652,
        "alt_km": 634.9284467736261,
        "timestamp": "2025-12-20T09:36:01.929494+00:00",
        "meta_object_name": "FENGYUN 1C DEB",
        "meta_object_id": "1999-025CFY",
        "meta_epoch": "2025-12-16T05:46:16.244256",
        "meta_mean_motion": 14.72930544,
        "meta_eccentricity": 0.00393572,
        "meta_inclination": 98.949,
        "meta_ra_of_asc_node": 341.5146,
        "meta_arg_of_pericenter": 167.345,
        "meta_mean_anomaly": 192.8752,
        "meta_ephemeris_type": 0,
        "meta_classification_type": "U",
        "meta_norad_cat_id": 31773,
        "meta_element_set_no": 999,
        "meta_rev_at_epoch": 65226,
        "meta_bstar": 0.0012966409,
        "meta_mean_motion_dot": 8.364e-05,
        "meta_mean_motion_ddot": 0,
        "tle_line1": "1 31773U 99025CFY 25350.24046579  .00008364  00000+0  12966-2 0  9994",
        "tle_line2": "2 31773  98.9490 341.5146 0039357 167.3450 192.8752 14.72930544652263"
      },
      "geometry": {
        "type": "Point",
        "coordinates": [
          -68.15856793190652,
          79.01238269722916
        ]
      }
    },
    {
      "type": "Feature",
      "properties": {
        "norad_id": 31776,
        "name": "FENGYUN 1C DEB",
        "group": "fengyun-1c-debris",
        "lat": 74.77728773657317,
        "lon": -89.70881386972532,
        "alt_km": 856.6452019916705,
        "timestamp": "2025-12-20T09:36:01.929504+00:00",
        "meta_object_name": "FENGYUN 1C DEB",
        "meta_object_id": "1999-025CGB",
        "meta_epoch": "2025-12-17T10:20:15.158400",
        "meta_mean_motion": 14.18576504,
        "meta_eccentricity": 0.00542331,
        "meta_inclination": 99.0756,
        "meta_ra_of_asc_node": 51.2828,
        "meta_arg_of_pericenter": 321.0516,
        "meta_mean_anomaly": 105.4475,
        "meta_ephemeris_type": 0,
        "meta_classification_type": "U",
        "meta_norad_cat_id": 31776,
        "meta_element_set_no": 999,
        "meta_rev_at_epoch": 94947,
        "meta_bstar": 0.0010653366,
        "meta_mean_motion_dot": 2.191e-05,
        "meta_mean_motion_ddot": 0,
        "tle_line1": "1 31776U 99025CGB 25351.43073100  .00002191  00000+0  10653-2 0  9992",
        "tle_line2": "2 31776  99.0756  51.2828 0054233 321.0516 105.4475 14.18576504949473"
      },
      "geometry": {
        "type": "Point",
        "coordinates": [
          -89.70881386972532,
          74.77728773657317
        ]
      }
    },
    {
      "type": "Feature",
      "properties": {
        "norad_id": 31779,
        "name": "FENGYUN 1C DEB",
        "group": "fengyun-1c-debris",
        "lat": -40.281748974131055,
        "lon": -76.96905258521919,
        "alt_km": 901.172358343204,
        "timestamp": "2025-12-20T09:36:01.929514+00:00",
        "meta_object_name": "FENGYUN 1C DEB",
        "meta_object_id": "1999-025CGE",
        "meta_epoch": "2025-12-19T05:28:47.120160",
        "meta_mean_motion": 14.41610394,
        "meta_eccentricity": 0.0213557,
        "meta_inclination": 99.2989,
        "meta_ra_of_asc_node": 273.7735,
        "meta_arg_of_pericenter": 163.8579,
        "meta_mean_anomaly": 196.9552,
        "meta_ephemeris_type": 0,
        "meta_classification_type": "U",
        "meta_norad_cat_id": 31779,
        "meta_element_set_no": 999,
        "meta_rev_at_epoch": 97103,
        "meta_bstar": 0.00016949,
        "meta_mean_motion_dot": 6.62e-06,
        "meta_mean_motion_ddot": 0,
        "tle_line1": "1 31779U 99025CGE 25353.22832315  .00000662  00000+0  16949-3 0  9991",
        "tle_line2": "2 31779  99.2989 273.7735 0213557 163.8579 196.9552 14.41610394971031"
      },
      "geometry": {
        "type": "Point",
        "coordinates": [
          -76.96905258521919,
          -40.281748974131055
        ]
      }
    },
    {
      "type": "Feature",
      "properties": {
        "norad_id": 31780,
        "name": "FENGYUN 1C DEB",
        "group": "fengyun-1c-debris",
        "lat": -32.38326908342155,
        "lon": 154.03476536058858,
        "alt_km": 618.4412463564413,
        "timestamp": "2025-12-20T09:36:01.929524+00:00",
        "meta_object_name": "FENGYUN 1C DEB",
        "meta_object_id": "1999-025CGF",
        "meta_epoch": "2025-12-19T09:14:08.893824",
        "meta_mean_motion": 14.69562649,
        "meta_eccentricity": 0.0150519,
        "meta_inclination": 99.2856,
        "meta_ra_of_asc_node": 146.9253,
        "meta_arg_of_pericenter": 32.9124,
        "meta_mean_anomaly": 328.1341,
        "meta_ephemeris_type": 0,
        "meta_classification_type": "U",
        "meta_norad_cat_id": 31780,
        "meta_element_set_no": 999,
        "meta_rev_at_epoch": 98595,
        "meta_bstar": 0.00017735,
        "meta_mean_motion_dot": 1.179e-05,
        "meta_mean_motion_ddot": 0,
        "tle_line1": "1 31780U 99025CGF 25353.38482516  .00001179  00000+0  17735-3 0  9992",
        "tle_line2": "2 31780  99.2856 146.9253 0150519  32.9124 328.1341 14.69562649985952"
      },
      "geometry": {
        "type": "Point",
        "coordinates": [
          154.03476536058858,
          -32.38326908342155
        ]
      }
    },
    {
      "type": "Feature",
      "properties": {
        "norad_id": 31781,
        "name": "FENGYUN 1C DEB",
        "group": "fengyun-1c-debris",
        "lat": -16.881757591926117,
        "lon": 168.68186543132288,
        "alt_km": 851.5826785154377,
        "timestamp": "2025-12-20T09:36:01.929534+00:00",
        "meta_object_name": "FENGYUN 1C DEB",
        "meta_object_id": "1999-025CGG",
        "meta_epoch": "2025-12-19T18:23:15.038592",
        "meta_mean_motion": 14.13066049,
        "meta_eccentricity": 0.02036338,
        "meta_inclination": 99.4964,
        "meta_ra_of_asc_node": 165.0977,
        "meta_arg_of_pericenter": 254.3992,
        "meta_mean_anomaly": 103.4621,
        "meta_ephemeris_type": 0,
        "meta_classification_type": "U",
        "meta_norad_cat_id": 31781,
        "meta_element_set_no": 999,
        "meta_rev_at_epoch": 68447,
        "meta_bstar": 0.002513497,
        "meta_mean_motion_dot": 5.669e-05,
        "meta_mean_motion_ddot": 0,
        "tle_line1": "1 31781U 99025CGG 25353.76614628  .00005669  00000+0  25135-2 0  9996",
        "tle_line2": "2 31781  99.4964 165.0977 0203633 254.3992 103.4621 14.13066049684479"
      },
      "geometry": {
        "type": "Point",
        "coordinates": [
          168.68186543132288,
          -16.881757591926117
        ]
      }
    },
    {
      "type": "Feature",
      "properties": {
        "norad_id": 31782,
        "name": "FENGYUN 1C DEB",
        "group": "fengyun-1c-debris",
        "lat": 0.9583965707881271,
        "lon": 155.69393504177037,
        "alt_km": 722.9772878778249,
        "timestamp": "2025-12-20T09:36:01.929544+00:00",
        "meta_object_name": "FENGYUN 1C DEB",
        "meta_object_id": "1999-025CGH",
        "meta_epoch": "2025-12-18T04:55:15.456864",
        "meta_mean_motion": 14.36245977,
        "meta_eccentricity": 0.00792647,
        "meta_inclination": 98.9041,
        "meta_ra_of_asc_node": 153.5768,
        "meta_arg_of_pericenter": 340.8877,
        "meta_mean_anomaly": 197.1117,
        "meta_ephemeris_type": 0,
        "meta_classification_type": "U",
        "meta_norad_cat_id": 31782,
        "meta_element_set_no": 999,
        "meta_rev_at_epoch": 96769,
        "meta_bstar": 0.00029972226,
        "meta_mean_motion_dot": 8.59e-06,
        "meta_mean_motion_ddot": 0,
        "tle_line1": "1 31782U 99025CGH 25352.20504001  .00000859  00000+0  29972-3 0  9998",
        "tle_line2": "2 31782  98.9041 153.5768 0079264 340.8877 197.1117 14.36245977967696"
      },
      "geometry": {
        "type": "Point",
        "coordinates": [
          155.69393504177037,
          0.9583965707881271
        ]
      }
    },
    {
      "type": "Feature",
      "properties": {
        "norad_id": 31783,
        "name": "FENGYUN 1C DEB",
        "group": "fengyun-1c-debris",
        "lat": -43.52367447171647,
        "lon": 174.4441673113633,
        "alt_km": 942.438423535822,
        "timestamp": "2025-12-20T09:36:01.929555+00:00",
        "meta_object_name": "FENGYUN 1C DEB",
        "meta_object_id": "1999-025CGJ",
        "meta_epoch": "2025-12-19T07:01:34.480416",
        "meta_mean_motion": 14.088411,
        "meta_eccentricity": 0.0104037,
        "meta_inclination": 98.6046,
        "meta_ra_of_asc_node": 1.6551,
        "meta_arg_of_pericenter": 31.5088,
        "meta_mean_anomaly": 340.1689,
        "meta_ephemeris_type": 0,
        "meta_classification_type": "U",
        "meta_norad_cat_id": 31783,
        "meta_element_set_no": 999,
        "meta_rev_at_epoch": 89313,
        "meta_bstar": 0.00041035,
        "meta_mean_motion_dot": 7.04e-06,
        "meta_mean_motion_ddot": 0,
        "tle_line1": "1 31783U 99025CGJ 25353.29276019  .00000704  00000+0  41035-3 0  9997",
        "tle_line2": "2 31783  98.6046   1.6551 0104037  31.5088 340.1689 14.08841100893137"
      },
      "geometry": {
        "type": "Point",
        "coordinates": [
          174.4441673113633,
          -43.52367447171647
        ]
      }
    }
  ]
}